{
    "links": {
        "self": "http://www.neowsapp.com/rest/v1/neo/3843771?api_key=iIulBulltgU6a56xZRHN4H3l9WmuAYTsLGpBGhQ2"
    },
    "id": "3843771",
    "neo_reference_id": "3843771",
    "name": "(2019 RT)",
    "designation": "2019 RT",
    "nasa_jpl_url": "http://ssd.jpl.nasa.gov/sbdb.cgi?sstr=3843771",
    "absolute_magnitude_h": 24.3,
    "estimated_diameter": {
        "kilometers": {
            "estimated_diameter_min": 0.0366906138,
            "estimated_diameter_max": 0.0820427065
        },
        "meters": {
            "estimated_diameter_min": 36.6906137531,
            "estimated_diameter_max": 82.0427064882
        },
        "miles": {
            "estimated_diameter_min": 0.0227984834,
            "estimated_diameter_max": 0.0509789586
        },
        "feet": {
            "estimated_diameter_min": 120.3760332259,
            "estimated_diameter_max": 269.1689931548
        }
    },
    "is_potentially_hazardous_asteroid": false,
    "close_approach_data": [
        {
            "close_approach_date": "2019-09-14",
            "close_approach_date_full": "2019-Sep-14 07:12",
            "epoch_date_close_approach": 1568445120000,
            "relative_velocity": {
                "kilometers_per_second": "16.5879637878",
                "kilometers_per_hour": "59716.6696359212",
                "miles_per_hour": "37105.6161968312"
            },
            "miss_distance": {
                "astronomical": "0.0350680911",
                "lunar": "13.6414874379",
                "kilometers": "5246111.733525957",
                "miles": "3259782.6730819266"
            },
            "orbiting_body": "Earth"
        }
    ],
    "orbital_data": {
        "orbit_id": "5",
        "orbit_determination_date": "2019-09-24 09:29:17",
        "first_observation_date": "2019-09-03",
        "last_observation_date": "2019-09-14",
        "data_arc_in_days": 11,
        "observations_used": 66,
        "orbit_uncertainty": "8",
        "minimum_orbit_intersection": ".000661934",
        "jupiter_tisserand_invariant": "3.378",
        "epoch_osculation": "2458732.5",
        "eccentricity": ".6523573792029187",
        "semi_major_axis": "2.167173908790212",
        "inclination": "2.5325014618503",
        "ascending_node_longitude": "306.0878864781563",
        "orbital_period": "1165.303556892343",
        "perihelion_distance": ".753402017374884",
        "perihelion_argument": "114.8091475015031",
        "aphelion_distance": "3.580945800205539",
        "perihelion_time": "2458784.822775404111",
        "mean_anomaly": "343.8358005224727",
        "mean_motion": ".3089323789245576",
        "equinox": "J2000",
        "orbit_class": {
            "orbit_class_type": "APO",
            "orbit_class_description": "Near-Earth asteroid orbits which cross the Earth’s orbit similar to that of 1862 Apollo",
            "orbit_class_range": "a (semi-major axis) > 1.0 AU; q (perihelion) < 1.017 AU"
        }
    },
    "is_sentry_object": false
}